NORAD_CAT_ID,OBJECT_NAME,OBJECT_TYPE,EPOCH,MEAN_MOTION,ECCENTRICITY,INCLINATION,RA_OF_ASC_NODE,ARG_OF_PERICENTER,MEAN_ANOMALY,BSTAR,MEAN_MOTION_DOT,MEAN_MOTION_DDOT,TLE_LINE0,TLE_LINE1,TLE_LINE2,SEMIMAJOR_AXIS,PERIOD,APOGEE,PERIGEE,DECAYED
52302.0,STARLINK-3564,PAYLOAD,2024-06-23 22:20:38,15.08875818,0.0001148,53.2169,9.2824,105.54,254.5719,-0.0003903,-6.5e-05,0.0,0 STARLINK-3564,1 52302U 22041AT  24175.93099809 -.00006500  00000-0 -39030-3 0  9998,2 52302  53.2169   9.2824 0001148 105.5400 254.5719 15.08875818120472,6917.771,95.435,540.43,538.842,0.0
52302.0,STARLINK-3564,PAYLOAD,2024-06-24 19:00:40,15.08838725,0.0001225,53.2177,5.4169,99.8109,260.3022,4.3057e-05,3.97e-06,0.0,0 STARLINK-3564,1 52302U 22041AT  24176.79213490  .00000397  00000-0  43057-4 0  9998,2 52302  53.2177   5.4169 0001225  99.8109 260.3022 15.08838725121815,6917.884,95.438,540.597,538.902,0.0
52302.0,STARLINK-3564,PAYLOAD,2024-06-25 18:51:27,15.08842293,0.0001299,53.2178,0.9542,84.4147,275.6993,5.2186e-05,5.43e-06,0.0,0 STARLINK-3564,1 52302U 22041AT  24177.78573301  .00000543  00000-0  52186-4 0  9994,2 52302  53.2178   0.9542 0001299  84.4147 275.6993 15.08842293120757,6917.873,95.437,540.637,538.84,0.0
52302.0,STARLINK-3564,PAYLOAD,2024-06-27 18:33:02,15.08835393,0.0001277,53.2178,352.0377,80.2859,279.8277,3.0828e-06,-2.39e-06,0.0,0 STARLINK-3564,1 52302U 22041AT  24179.77294272 -.00000239  00000-0  30828-5 0  9995,2 52302  53.2178 352.0377 0001277  80.2859 279.8277 15.08835393122266,6917.894,95.438,540.643,538.876,0.0
52302.0,STARLINK-3564,PAYLOAD,2024-06-28 04:05:20,15.0884973,0.0001212,53.2183,350.2512,84.2575,275.8555,2.2112e-05,6.4e-07,0.0,0 STARLINK-3564,1 52302U 22041AT  24180.17037266  .00000064  00000-0  22112-4 0  9990,2 52302  53.2183 350.2512 0001212  84.2575 275.8555 15.08849730122323,6917.851,95.437,540.554,538.877,0.0
52302.0,STARLINK-3564,PAYLOAD,2024-06-28 16:48:25,15.0883551,0.0001199,53.2169,347.8766,93.7694,266.3435,0.00013944,1.932e-05,0.0,0 STARLINK-3564,1 52302U 22041AT  24180.70029860  .00001932  00000-0  13944-3 0  9997,2 52302  53.2169 347.8766 0001199  93.7694 266.3435 15.08835510122403,6917.894,95.438,540.589,538.93,0.0
52302.0,STARLINK-3564,PAYLOAD,2024-06-29 03:56:05,15.08861863,0.0001264,53.2172,345.7901,49.9152,310.195,0.000288,4.301e-05,0.0,0 STARLINK-3564,1 52302U 22041AT  24181.16395799  .00004301  00000-0  28800-3 0  9995,2 52302  53.2172 345.7901 0001264  49.9152 310.1950 15.08861863122477,6917.814,95.436,540.553,538.804,0.0
52302.0,STARLINK-3564,PAYLOAD,2024-06-29 19:49:59,15.08828183,0.0001132,53.2168,342.8167,75.5805,284.5313,-0.00011146,-2.061e-05,0.0,0 STARLINK-3564,1 52302U 22041AT  24181.82638450 -.00002061  00000-0 -11146-3 0  9990,2 52302  53.2168 342.8167 0001132  75.5805 284.5313 15.08828183122574,6917.917,95.438,540.565,538.998,0.0
52302.0,STARLINK-3564,PAYLOAD,2024-06-29 21:25:22,15.08827307,0.0001204,53.217,342.5212,75.9827,284.1299,-0.00010171,-1.906e-05,0.0,0 STARLINK-3564,1 52302U 22041AT  24181.89262641 -.00001906  00000-0 -10171-3 0  9996,2 52302  53.2170 342.5212 0001204  75.9827 284.1299 15.08827307121376,6917.919,95.438,540.617,538.951,0.0
52302.0,STARLINK-3564,PAYLOAD,2024-06-30 14:54:36,15.08844959,0.000131,53.2145,339.2558,77.45,282.6638,0.00018343,2.633e-05,0.0,0 STARLINK-3564,1 52302U 22041AT  24182.62126063  .00002633  00000-0  18343-3 0  9990,2 52302  53.2145 339.2558 0001310  77.4500 282.6638 15.08844959121481,6917.865,95.437,540.636,538.824,0.0
52302.0,STARLINK-3564,PAYLOAD,2024-06-30 18:05:21,15.08867602,9.75e-05,53.2156,338.6549,64.965,295.1443,0.00024078,3.549e-05,0.0,0 STARLINK-3564,1 52302U 22041AT  24182.75372640  .00003549  00000-0  24078-3 0  9997,2 52302  53.2156 338.6549 0000975  64.9650 295.1443 15.08867602122719,6917.796,95.436,540.336,538.987,0.0
52302.0,STARLINK-3564,PAYLOAD,2024-07-01 09:59:15,15.08816012,0.0001064,53.2172,335.6833,84.1957,275.9156,2.1723e-05,5.8e-07,0.0,0 STARLINK-3564,1 52302U 22041AT  24183.41615049  .00000058  00000-0  21723-4 0  9991,2 52302  53.2172 335.6833 0001064  84.1957 275.9156 15.08816012122811,6917.954,95.439,540.555,539.083,0.0
52302.0,STARLINK-3564,PAYLOAD,2024-07-01 14:45:24,15.08823813,0.0001023,53.2159,334.7933,74.2996,285.8109,0.00010726,1.419e-05,0.0,0 STARLINK-3564,1 52302U 22041AT  24183.61486832  .00001419  00000-0  10726-3 0  9991,2 52302  53.2159 334.7933 0001023  74.2996 285.8109 15.08823813121639,6917.93,95.439,540.503,539.087,0.0
52302.0,STARLINK-3564,PAYLOAD,2024-07-01 16:20:47,15.08829329,0.0001013,53.2149,334.4953,75.8886,284.2219,2.987e-05,1.88e-06,0.0,0 STARLINK-3564,1 52302U 22041AT  24183.68110594  .00000188  00000-0  29870-4 0  9990,2 52302  53.2149 334.4953 0001013  75.8886 284.2219 15.08829329122859,6917.913,95.438,540.479,539.077,0.0
52302.0,STARLINK-3564,PAYLOAD,2024-07-02 03:28:28,15.08845006,0.0001112,53.2162,332.4137,78.968,281.1437,0.00018284,2.624e-05,0.0,0 STARLINK-3564,1 52302U 22041AT  24184.14477919  .00002624  00000-0  18284-3 0  9992,2 52302  53.2162 332.4137 0001112  78.9680 281.1437 15.08845006122928,6917.865,95.437,540.499,538.961,0.0
52302.0,STARLINK-3564,PAYLOAD,2024-07-02 09:50:01,15.08834363,0.0001441,53.2149,331.2229,88.7731,271.3426,-8.5861e-05,-1.654e-05,0.0,0 STARLINK-3564,1 52302U 22041AT  24184.40974343 -.00001654  00000-0 -85861-4 0  9994,2 52302  53.2149 331.2229 0001441  88.7731 271.3426 15.08834363122960,6917.898,95.438,540.759,538.766,0.0
52302.0,STARLINK-3564,PAYLOAD,2024-07-02 14:36:11,15.08835463,0.0001439,53.2155,330.3279,110.0876,250.0271,1.3238e-05,-7.7e-07,0.0,0 STARLINK-3564,1 52302U 22041AT  24184.60846333 -.00000077  00000-0  13238-4 0  9999,2 52302  53.2155 330.3279 0001439 110.0876 250.0271 15.08835463121781,6917.894,95.438,540.755,538.764,0.0
52302.0,STARLINK-3564,PAYLOAD,2024-07-02 19:22:20,15.08836563,0.0001181,53.2159,329.4382,100.007,260.1055,-7.8326e-05,-1.534e-05,0.0,0 STARLINK-3564,1 52302U 22041AT  24184.80718332 -.00001534  00000-0 -78326-4 0  9997,2 52302  53.2159 329.4382 0001181 100.0070 260.1055 15.08836563121816,6917.891,95.438,540.573,538.939,0.0
52302.0,STARLINK-3564,PAYLOAD,2024-07-03 12:51:35,15.08836637,0.0001081,53.2145,326.1681,95.7957,264.3159,0.00029345,4.385e-05,0.0,0 STARLINK-3564,1 52302U 22041AT  24185.53582853  .00004385  00000-0  29345-3 0  9996,2 52302  53.2145 326.1681 0001081  95.7957 264.3159 15.08836637123130,6917.891,95.438,540.503,539.008,0.0
52302.0,STARLINK-3564,PAYLOAD,2024-07-03 16:02:21,15.08838664,9.67e-05,53.2144,325.5733,87.5823,272.528,0.00031013,4.651e-05,0.0,0 STARLINK-3564,1 52302U 22041AT  24185.66830921  .00004651  00000-0  31013-3 0  9993,2 52302  53.2144 325.5733 0000967  87.5823 272.5280 15.08838664121948,6917.884,95.438,540.418,539.081,0.0
52302.0,STARLINK-3564,PAYLOAD,2024-07-04 12:42:22,15.08835809,8.93e-05,53.2153,321.7073,89.1409,270.9685,0.00020645,2.999e-05,0.0,0 STARLINK-3564,1 52302U 22041AT  24186.52943160  .00002999  00000-0  20645-3 0  9991,2 52302  53.2153 321.7073 0000893  89.1409 270.9685 15.08835809123287,6917.893,95.438,540.376,539.14,0.0
52302.0,STARLINK-3564,PAYLOAD,2024-07-04 14:17:46,15.0883568,9.29e-05,53.2154,321.4093,89.1868,270.923,0.0001758,2.511e-05,0.0,0 STARLINK-3564,1 52302U 22041AT  24186.59567172  .00002511  00000-0  17580-3 0  9997,2 52302  53.2154 321.4093 0000929  89.1868 270.9230 15.08835680122086,6917.894,95.438,540.401,539.116,0.0
52302.0,STARLINK-3564,PAYLOAD,2024-07-04 15:53:09,15.08836949,9.44e-05,53.2157,321.1106,93.2065,266.9035,0.00014698,2.052e-05,0.0,0 STARLINK-3564,1 52302U 22041AT  24186.66191091  .00002052  00000-0  14698-3 0  9995,2 52302  53.2157 321.1106 0000944  93.2065 266.9035 15.08836949122091,6917.89,95.438,540.408,539.102,0.0
52302.0,STARLINK-3564,PAYLOAD,2024-07-05 01:25:27,15.08849529,9.46e-05,53.2165,319.3267,94.4236,265.6864,0.00025055,3.703e-05,0.0,0 STARLINK-3564,1 52302U 22041AT  24187.05934374  .00003703  00000-0  25055-3 0  9991,2 52302  53.2165 319.3267 0000946  94.4236 265.6864 15.08849529123367,6917.851,95.437,540.371,539.062,0.0
52302.0,STARLINK-3564,PAYLOAD,2024-07-05 12:33:10,15.08836445,0.0001305,53.2176,317.2535,103.9177,256.196,1.0302e-05,-1.24e-06,0.0,0 STARLINK-3564,1 52302U 22041AT  24187.52303248 -.00000124  00000-0  10302-4 0  9998,2 52302  53.2176 317.2535 0001305 103.9177 256.1960 15.08836445123437,6917.891,95.438,540.659,538.853,0.0
52302.0,STARLINK-3564,PAYLOAD,2024-07-05 14:08:33,15.08836506,0.0001142,53.2194,316.9578,93.8747,266.2375,2.285e-06,-2.51e-06,0.0,0 STARLINK-3564,1 52302U 22041AT  24187.58927335 -.00000251  00000-0  22850-5 0  9996,2 52302  53.2194 316.9578 0001142  93.8747 266.2375 15.08836506122236,6917.891,95.438,540.546,538.966,0.0
52302.0,STARLINK-3564,PAYLOAD,2024-07-05 15:43:56,15.08838225,0.0001061,53.2185,316.6577,96.3266,263.7847,2.2751e-05,7.4e-07,0.0,0 STARLINK-3564,1 52302U 22041AT  24187.65551120  .00000074  00000-0  22751-4 0  9990,2 52302  53.2185 316.6577 0001061  96.3266 263.7847 15.08838225122243,6917.886,95.438,540.485,539.017,0.0
52302.0,STARLINK-3564,PAYLOAD,2024-07-06 01:16:14,15.08854253,8.64e-05,53.217,314.8663,69.48,290.6285,0.00025878,3.835e-05,0.0,0 STARLINK-3564,1 52302U 22041AT  24188.05294129  .00003835  00000-0  25878-3 0  9998,2 52302  53.2170 314.8663 0000864  69.4800 290.6285 15.08854253123513,6917.837,95.437,540.3,539.104,0.0
52302.0,STARLINK-3564,PAYLOAD,2024-07-06 12:23:56,15.0883522,0.0001175,53.2168,312.7891,99.0511,261.0614,4.185e-05,3.78e-06,0.0,0 STARLINK-3564,1 52302U 22041AT  24188.51663104  .00000378  00000-0  41850-4 0  9990,2 52302  53.2168 312.7891 0001175  99.0511 261.0614 15.08835220123582,6917.895,95.438,540.573,538.947,0.0
52302.0,STARLINK-3564,PAYLOAD,2024-07-06 13:59:20,15.08837121,0.0001197,53.2169,312.4918,99.1464,260.9664,7.0324e-05,8.31e-06,0.0,0 STARLINK-3564,1 52302U 22041AT  24188.58287039  .00000831  00000-0  70324-4 0  9998,2 52302  53.2169 312.4918 0001197  99.1464 260.9664 15.08837121122384,6917.889,95.438,540.582,538.926,0.0
